NUSAT-1 (FRESCO)        
1 41557U 16033B   22047.55701598  .00010642  00000+0  35005-3 0  9998
2 41557  97.3882 145.3855 0013526  88.1496 328.0521 15.31616211318869
BEESAT-4                
1 41619U 16040W   22047.13338307  .00006685  00000+0  24878-3 0  9991
2 41619  97.2364 101.1977 0010091 179.4699 180.6553 15.27763629302186
CAS-2T & KS-1Q          
1 41847U 16066G   22047.17299650  .00000636  00000+0  10608-3 0  9999
2 41847  98.5681 111.9036 0364185 212.3755 145.4615 14.38366412276915
NAYIF-1 (EO-88)         
1 42017U 17008BX  22046.72720915  .00008571  00000+0  29089-3 0  9998
2 42017  97.2865 114.8834 0004717 337.6465  22.4570 15.30739579278438
ZHUHAI-1 02 (CAS-4B)    
1 42759U 17034B   22047.11606705  .00003611  00000+0  22580-3 0  9993
2 42759  43.0176 280.9753 0009134 252.7608 243.4239 15.10916725257997
ZHUHAI-1 01 (CAS-4A)    
1 42761U 17034D   22047.16063698  .00003499  00000+0  21874-3 0  9998
2 42761  43.0178 279.6083 0009697 254.3218 250.3705 15.11000768258002
MAX VALIER SAT          
1 42778U 17036P   22046.87378264  .00004143  00000+0  16859-3 0  9997
2 42778  97.2245  92.2175 0012414  43.9114 316.3109 15.24981163258366
RADFXSAT (FOX-1B)       
1 43017U 17073E   22046.67963131  .00002356  00000+0  18478-3 0  9999
2 43017  97.6898 305.8424 0250939 226.0274 132.0003 14.80388690229099
FOX-1D (AO-92)          
1 43137U 18004AC  22047.14775910  .00005322  00000+0  20365-3 0  9990
2 43137  97.3819 123.5659 0009704  74.8719 285.3592 15.26956800227810
DIWATA-2B               
1 43678U 18084H   22047.13172799  .00001171  00000+0  12144-3 0  9997
2 43678  97.9495 179.1501 0009258 334.8484  25.2276 14.91925754179766
ES'HAIL 2               
1 43700U 18090A   22046.80483080  .00000146  00000+0  00000+0 0  9996
2 43700   0.0137 104.4815 0002420 247.6204 109.1806  1.00271923 11814
FOX-1CLIFF (AO-95)      
1 43770U 18099N   22047.46607713  .00002061  00000+0  18964-3 0  9996
2 43770  97.6366 116.9326 0013339 326.1758  33.8611 14.95781182174920
ITASAT 1                
1 43786U 18099AE  22046.80615081  .00001835  00000+0  16834-3 0  9999
2 43786  97.6392 117.1344 0013884 320.8831  39.1385 14.96012944174861
JY1SAT (JO-97)          
1 43803U 18099AX  22047.45942666  .00001748  00000+0  15928-3 0  9999
2 43803  97.6345 117.5093 0013737 317.0667  42.9482 14.96357613174973
UWE-4                   
1 43880U 18111E   22046.74298483  .00001972  00000+0  17439-3 0  9999
2 43880  97.6767 315.1946 0012298  16.1021 344.0590 14.97393446171485
NEXUS (FO-99)           
1 43937U 19003F   22046.58182073  .00006841  00000+0  25350-3 0  9993
2 43937  97.1477  84.8368 0020735 225.5684 134.3860 15.27739105171351
PSAT2 (NO-104)          
1 44354U 19036R   22046.86745597  .00049023  00000+0  55689-3 0  9997
2 44354  28.5251 291.9839 0280628  55.0178 307.6433 15.25631141146015
BRICSAT2 (NO-103)       
1 44355U 19036S   22047.52879169  .00144568 -12590-5  82462-3 0  9998
2 44355  28.5216 184.2287 0146179 230.2318 128.5331 15.63709594147134
JAISAT-1                
1 44419U 19038F   22047.46775064  .00004797  00000+0  25788-3 0  9996
2 44419  97.6219  16.9288 0020085 185.2782 174.8242 15.15204212144729
DUCHIFAT-3              
1 44854U 19089C   22047.46981575  .00003171  00000+0  25526-3 0  9996
2 44854  36.9670  97.0408 0008752 314.2347  45.7640 15.00147307119759
CAS-6 (TO-108)          
1 44881U 19093C   22047.42298984  .00000493  00000+0  69461-4 0  9993
2 44881  97.9033 128.3394 0014026 215.9141 144.1134 14.81569650116858
RS-44 & BREEZE-KM R/B   
1 44909U 19096E   22046.77365326  .00000014  00000+0  17002-4 0  9992
2 44909  82.5235 311.1353 0216352 244.1620 113.7026 12.79711932 99941
ORBITAL FACTORY 2 (OF-2)
1 45113U 19071C   22046.87461428  .00011645  00000+0  30074-3 0  9999
2 45113  51.6410 294.7292 0011296  98.5396 261.6869 15.39531463114618
HUSKYSAT-1 (HO-107)     
1 45119U 19071J   22046.70514817  .00011876  00000+0  30953-3 0  9990
2 45119  51.6401 295.0822 0010824  94.5654 265.6566 15.39234323114585
BY70-2                  
1 45857U 20042B   22047.38544212  .00005745  00000+0  79902-3 0  9991
2 45857  97.9646 125.5132 0012099 143.9614 216.2404 14.78160709 87568
SALSAT                  
1 46495U 20068K   22046.82566987  .00001476  00000+0  11140-3 0  9996
2 46495  97.7200 348.2411 0015801 335.7708  24.2772 15.03896267 75908
BY70-3                  
1 46839U 20079N   22047.46667134  .00015854  00000+0  43965-3 0  9992
2 46839  97.2149 121.5469 0008024  57.0535  63.3222 15.36981770 71633
RADFXSAT-2 (AO-109)     
1 47311U 21002C   22047.50288264  .00004184  00000+0  18593-3 0  9996
2 47311  60.6856  96.7821 0021726 178.9145 181.1994 15.23200288 60038
UVSQ-SAT                
1 47438U 21006AB  22046.74130057  .00002981  00000+0  16675-3 0  9993
2 47438  97.4556 108.2869 0011824 344.3485  15.7380 15.14173255 58859
DIY-1 (ARDUIQUBE)       
1 47963U 21022AH  22046.66244520  .00007927  00000+0  49442-3 0  9999
2 47963  97.5449 309.7390 0017822 186.7748 173.3243 15.09661450 48553
XW-3 (CAS-9)            
1 50466U 21131B   22047.41875698  .00000095  00000+0  45722-4 0  9999
2 50466  98.5919 124.6883 0005612 139.3652 220.7958 14.38442742  7514
